[{"OBJECT_NAME":"STARLINK-32181","OBJECT_ID":"2024-136W","EPOCH":"2026-03-09T07:51:12.301344","MEAN_MOTION":15.30194267,"ECCENTRICITY":0.00012075,"INCLINATION":53.161,"RA_OF_ASC_NODE":77.0184,"ARG_OF_PERICENTER":95.4758,"MEAN_ANOMALY":264.6381,"EPHEMERIS_TYPE":0,"CLASSIFICATION_TYPE":"U","NORAD_CAT_ID":60349,"ELEMENT_SET_NO":999,"REV_AT_EPOCH":8961,"BSTAR":-1.3737954e-5,"MEAN_MOTION_DOT":-7.66e-6,"MEAN_MOTION_DDOT":0},{"OBJECT_NAME":"COSMOS 249 DEB","OBJECT_ID":"1968-091AU","EPOCH":"2026-03-09T15:21:56.246976","MEAN_MOTION":14.4883057,"ECCENTRICITY":0.0371981,"INCLINATION":61.9727,"RA_OF_ASC_NODE":173.5146,"ARG_OF_PERICENTER":67.41,"MEAN_ANOMALY":296.587,"EPHEMERIS_TYPE":0,"CLASSIFICATION_TYPE":"U","NORAD_CAT_ID":3757,"ELEMENT_SET_NO":999,"REV_AT_EPOCH":81948,"BSTAR":0.0010972,"MEAN_MOTION_DOT":0.00010007,"MEAN_MOTION_DDOT":0}]
